BEIDOU-2 IGSO-1 (C06)   
1 36828U 10036A   25033.00737149 -.00000112  00000+0  00000+0 0  9994
2 36828  54.2691 167.4847 0044490 207.7546 226.8011  1.00263541 53218
BEIDOU-2 G4 (C04)       
1 37210U 10057A   25033.54113787 -.00000108  00000+0  00000+0 0  9993
2 37210   2.4060  70.4234 0008852 199.0106 218.2583  1.00272448 52279
BEIDOU-2 IGSO-2 (C07)   
1 37256U 10068A   25032.57733539 -.00000173  00000+0  00000+0 0  9992
2 37256  48.4536 278.0147 0038860 213.6455 316.4401  1.00279042 51779
BEIDOU-2 IGSO-3 (C08)   
1 37384U 11013A   25023.72627113 -.00000144  00000+0  00000+0 0  9990
2 37384  61.6727  44.9876 0029519 185.5207 258.4470  1.00254270 50554
BEIDOU-2 IGSO-4 (C09)   
1 37763U 11038A   25032.84500536 -.00000022  00000+0  00000+0 0  9995
2 37763  54.5741 170.1443 0133497 228.7764 132.2156  1.00259113 49620
BEIDOU-2 IGSO-5 (C10)   
1 37948U 11073A   25032.48091523 -.00000116  00000+0  00000+0 0  9994
2 37948  48.5899 277.7148 0100942 220.3454 263.1437  1.00279972 48115
BEIDOU-2 G5 (C05)       
1 38091U 12008A   25033.06155791  .00000062  00000+0  00000+0 0  9995
2 38091   2.3260  71.2284 0013602 240.5893 261.5473  1.00269041 47465
BEIDOU-2 M3 (C11)       
1 38250U 12018A   25030.60004350 -.00000058  00000+0  00000+0 0  9990
2 38250  56.1740 321.7570 0023571 272.6594  87.0977  1.86233551 86580
BEIDOU-2 M4 (C12)       
1 38251U 12018B   25033.21582877 -.00000068  00000+0  00000+0 0  9997
2 38251  56.0764 320.9236 0014495 278.4000  81.4664  1.86231971 86986
BEIDOU-2 M6 (C14)       
1 38775U 12050B   25031.31486560  .00000003  00000+0  00000+0 0  9993
2 38775  56.1016  79.5480 0012903 334.0440  25.9742  1.86230909 83960
BEIDOU-2 G6 (C02)       
1 38953U 12059A   25033.02976691 -.00000171  00000+0  00000+0 0  9996
2 38953   3.1464  78.6278 0009321 292.0906 216.4388  1.00273419 45030
BEIDOU-3S IGSO-1S (C31) 
1 40549U 15019A   25032.47304256 -.00000149  00000+0  00000+0 0  9994
2 40549  50.1415 301.4725 0033819 196.7468 257.0746  1.00252976 36054
BEIDOU-3S M2S (C58)     
1 40748U 15037A   25030.73253687 -.00000056  00000+0  00000+0 0  9990
2 40748  55.3035 319.2846 0010912 270.2203  89.6858  1.86229062 64761
BEIDOU-3S M1S (C57)     
1 40749U 15037B   25031.00453314 -.00000057  00000+0  00000+0 0  9992
2 40749  55.3000 319.2688 0004404 358.8467   1.1838  1.86253593 64776
BEIDOU-3S IGSO-2S (C56) 
1 40938U 15053A   25033.43116459 -.00000084  00000+0  00000+0 0  9995
2 40938  49.9950 264.7043 0051973 186.9816 289.6534  1.00253249 34338
BEIDOU-2 IGSO-6 (C13)   
1 41434U 16021A   25032.48814858 -.00000135  00000+0  00000+0 0  9992
2 41434  59.5159  43.0367 0054768 229.1307 132.1588  1.00269715 32463
BEIDOU-2 G7 (C03)       
1 41586U 16037A   25033.49109226 -.00000349  00000+0  00000+0 0  9992
2 41586   1.9317  68.1069 0008616 343.1032   8.9721  1.00266440 31761
BEIDOU-3 M1 (C19)       
1 43001U 17069A   25032.69151271 -.00000006  00000+0  00000+0 0  9990
2 43001  56.2519  79.6282 0011359 299.2199  60.7443  1.86231016 49287
BEIDOU-3 M2 (C20)       
1 43002U 17069B   25032.62920619 -.00000006  00000+0  00000+0 0  9994
2 43002  56.2514  79.6662 0008601 319.3921  40.6219  1.86230836 49274
BEIDOU-3 M7 (C27)       
1 43107U 18003A   25031.30226482 -.00000059  00000+0  00000+0 0  9998
2 43107  54.7617 319.7557 0003783  55.6444 304.4226  1.86232246 48000
BEIDOU-3 M8 (C28)       
1 43108U 18003B   25032.31848988 -.00000063  00000+0  00000+0 0  9997
2 43108  54.7537 319.7050 0004155 282.0245  77.9615  1.86230718 48038
BEIDOU-3 M4 (C22)       
1 43207U 18018A   25032.75965856 -.00000007  00000+0  00000+0 0  9993
2 43207  56.2108  79.7072 0005453 341.8823  18.1759  1.86230944 47423
BEIDOU-3 M3 (C21)       
1 43208U 18018B   25032.82620595 -.00000007  00000+0  00000+0 0  9990
2 43208  56.2104  79.7090 0008811 308.7506  51.2478  1.86231073 47421
BEIDOU-3 M9 (C29)       
1 43245U 18029A   25030.36061559 -.00000054  00000+0  00000+0 0  9991
2 43245  54.6389 317.4743 0001563 310.9372  49.0823  1.86232374 46534
BEIDOU-3 M10 (C30)      
1 43246U 18029B   25032.97542320 -.00000064  00000+0  00000+0 0  9992
2 43246  54.6337 317.4106 0004928   3.3863 356.6525  1.86228765 46576
BEIDOU-2 IGSO-7 (C16)   
1 43539U 18057A   25019.31863137 -.00000081  00000+0  00000+0 0  9992
2 43539  55.1601 167.5020 0079956 232.2573 302.6513  1.00246108 23989
BEIDOU-3 M5 (C23)       
1 43581U 18062A   25033.20113743  .00000087  00000+0  00000+0 0  9995
2 43581  54.1123 199.3035 0001386 343.9944  15.9693  1.86228413 44324
BEIDOU-3 M6 (C24)       
1 43582U 18062B   25031.99186405  .00000080  00000+0  00000+0 0  9998
2 43582  54.1117 199.3340 0007001  46.0242 314.0009  1.86229312 44300
BEIDOU-3 M12 (C26)      
1 43602U 18067A   25033.00034087  .00000085  00000+0  00000+0 0  9993
2 43602  54.2037 198.0022 0008464  37.2555 322.7695  1.86227649 43803
BEIDOU-3 M11 (C25)      
1 43603U 18067B   25032.06008587  .00000079  00000+0  00000+0 0  9998
2 43603  54.2011 197.9988 0005035  33.9433 326.0546  1.86227159 43813
BEIDOU-3 M13 (C32)      
1 43622U 18072A   25032.55732747 -.00000005  00000+0  00000+0 0  9991
2 43622  56.1828  79.2386 0008021 295.4847  64.5106  1.86230964 43338
BEIDOU-3 M14 (C33)      
1 43623U 18072B   25032.95975485 -.00000009  00000+0  00000+0 0  9998
2 43623  56.1851  79.2185 0005324 316.2290  43.8052  1.86230954 43338
BEIDOU-3 M16 (C35)      
1 43647U 18078A   25030.97298827 -.00000055  00000+0  00000+0 0  9999
2 43647  54.5346 317.5322 0007956  15.2955 344.7627  1.86232188 42806
BEIDOU-3 M15 (C34)      
1 43648U 18078B   25033.24998601 -.00000066  00000+0  00000+0 0  9992
2 43648  54.5282 317.4551 0004830  18.6262 341.4266  1.86231962 42874
BEIDOU-3 G1 (C59)       
1 43683U 18085A   25032.99687927 -.00000273  00000+0  00000+0 0  9996
2 43683   2.7639 101.8294 0001306  11.9856 157.5487  1.00272992 23035
BEIDOU-3 M17 (C36)      
1 43706U 18093A   25032.86646389  .00000085  00000+0  00000+0 0  9994
2 43706  54.1952 199.2702 0006091 296.6658  63.2394  1.86228095 42202
BEIDOU-3 M18 (C37)      
1 43707U 18093B   25031.11907279  .00000077  00000+0  00000+0 0  9991
2 43707  54.1961 199.3214 0005765 342.7774  17.1718  1.86229638 42180
BEIDOU-3 IGSO-1 (C38)   
1 44204U 19023A   25032.92803019 -.00000193  00000+0  00000+0 0  9995
2 44204  57.9812  42.8212 0023223 225.9893 316.7555  1.00285172  2197
BEIDOU-2 G8 (C01)       
1 44231U 19027A   25033.51964135 -.00000245  00000+0  00000+0 0  9990
2 44231   2.0510  74.9064 0004632 217.4341 172.0891  1.00266773 21060
BEIDOU-3 IGSO-2 (C39)   
1 44337U 19035A   25033.00151800 -.00000127  00000+0  00000+0 0  9996
2 44337  55.2007 163.2532 0036162 198.9331 248.8396  1.00267511 20685
BEIDOU-3 M24 (C46)      
1 44542U 19061A   25032.80025241  .00000085  00000+0  00000+0 0  9991
2 44542  54.4228 199.6044 0008686  19.4666 340.5345  1.86228991 36479
BEIDOU-3 M23 (C45)      
1 44543U 19061B   25033.00054560  .00000086  00000+0  00000+0 0  9992
2 44543  54.4215 199.5662 0005291  18.9250  28.0094  1.86229084 36476
BEIDOU-3 IGSO-3 (C40)   
1 44709U 19073A   25033.09543244 -.00000167  00000+0  00000+0 0  9991
2 44709  55.6555 286.2824 0041145 183.0454 177.0306  1.00286888 19420
BEIDOU-3 M22 (C44)      
1 44793U 19078A   25032.10716378 -.00000060  00000+0  00000+0 0  9992
2 44793  54.3808 317.3968 0006795  20.1629 339.8997  1.86231834 35317
BEIDOU-3 M21 (C43)      
1 44794U 19078B   25032.77446971 -.00000063  00000+0  00000+0 0  9998
2 44794  54.3536 317.3446 0004980  11.7667 348.2807  1.86227526 35338
BEIDOU-3 M19 (C41)      
1 44864U 19090A   25032.43003912 -.00000004  00000+0  00000+0 0  9992
2 44864  56.1169  79.4014 0019454 282.5843  39.0164  1.86231298 34905
BEIDOU-3 M20 (C42)      
1 44865U 19090B   25032.89589412 -.00000008  00000+0  00000+0 0  9991
2 44865  56.1187  79.4194 0016891 294.2819  69.3401  1.86231266 34893
BEIDOU-3 G2 (C60)       
1 45344U 20017A   25033.05558934 -.00000136  00000+0  00000+0 0  9991
2 45344   2.6441  37.2290 0003086 275.2291 280.0662  1.00270258 18252
BEIDOU-3 G3 (C61)       
1 45807U 20040A   25032.68586150 -.00000348  00000+0  00000+0 0  9995
2 45807   1.2448  59.9457 0004056 310.5518 118.8862  1.00263263 17052
BEIDOU-3 G4 (C62)       
1 56564U 23066A   25033.53975824 -.00000106  00000+0  00000+0 0  9995
2 56564   1.5514 289.7080 0002212 257.2095 300.3661  1.00271853  6399
BEIDOU-3 M28 (C50)      
1 58654U 23207A   25032.31954577 -.00000005  00000+0  00000+0 0  9999
2 58654  55.3034  79.2614 0004202 279.0783  80.9528  1.86231913  7512
BEIDOU-3 M26 (C48)      
1 58655U 23207B   25032.65601678 -.00000008  00000+0  00000+0 0  9991
2 58655  55.3059  79.2359 0005212 265.7503  94.2672  1.86231353  7505
